{
  "norad_id": 67738,
  "name": "STARLINK-36327",
  "history": [
    {
      "epoch": "2026-04-14T20:52:07.589856Z",
      "apogee_km": 465.9063090664431,
      "perigee_km": 465.1808789234792,
      "latitude_deg": 6.339150060310642e-05,
      "longitude_deg": 2.936305061142439,
      "height_km": 468.64199190307465,
      "semi_major_axis_km": 6843.680593994961,
      "eccentricity": 5.3e-05,
      "inclination_deg": 97.2847,
      "raan_deg": 159.0077,
      "arg_perigee_deg": 87.9792,
      "mean_anomaly_deg": 272.1512,
      "mean_motion_rev_day": 15.33444859
    },
    {
      "epoch": "2026-04-15T17:13:42.443904Z",
      "apogee_km": 466.13540288477816,
      "perigee_km": 464.96923822455574,
      "latitude_deg": -3.2698901752431313e-06,
      "longitude_deg": 57.54254755390149,
      "height_km": 468.81363908134955,
      "semi_major_axis_km": 6843.689320554667,
      "eccentricity": 8.52e-05,
      "inclination_deg": 97.2848,
      "raan_deg": 159.8453,
      "arg_perigee_deg": 104.9635,
      "mean_anomaly_deg": 255.1702,
      "mean_motion_rev_day": 15.33441926
    },
    {
      "epoch": "2026-04-16T02:37:30.613440Z",
      "apogee_km": 466.39961780255726,
      "perigee_km": 464.6245121080892,
      "latitude_deg": 2.6497469459880472e-05,
      "longitude_deg": -83.40887117931635,
      "height_km": 468.8641553320992,
      "semi_major_axis_km": 6843.6490649553225,
      "eccentricity": 0.00012969,
      "inclination_deg": 97.2833,
      "raan_deg": 160.2305,
      "arg_perigee_deg": 105.8185,
      "mean_anomaly_deg": 254.3201,
      "mean_motion_rev_day": 15.33455456
    },
    {
      "epoch": "2026-04-17T20:54:38.373408Z",
      "apogee_km": 465.7745029897442,
      "perigee_km": 465.3006469621723,
      "latitude_deg": -2.673975419585476e-05,
      "longitude_deg": 2.307901758581761,
      "height_km": 468.63431611504336,
      "semi_major_axis_km": 6843.6745749759575,
      "eccentricity": 3.462e-05,
      "inclination_deg": 97.2834,
      "raan_deg": 161.9662,
      "arg_perigee_deg": 86.4229,
      "mean_anomaly_deg": 273.7053,
      "mean_motion_rev_day": 15.33446882
    },
    {
      "epoch": "2026-04-18T14:08:16.975968Z",
      "apogee_km": 466.02169666208283,
      "perigee_km": 464.98830671982887,
      "latitude_deg": 6.339868805763011e-05,
      "longitude_deg": 103.8987426951561,
      "height_km": 468.7479513456137,
      "semi_major_axis_km": 6843.642001690956,
      "eccentricity": 7.55e-05,
      "inclination_deg": 97.2834,
      "raan_deg": 162.6754,
      "arg_perigee_deg": 104.8002,
      "mean_anomaly_deg": 255.3325,
      "mean_motion_rev_day": 15.3345783
    },
    {
      "epoch": "2026-04-19T13:37:47.544096Z",
      "apogee_km": 466.85556086693396,
      "perigee_km": 464.0880054750205,
      "latitude_deg": 2.395748288569603e-05,
      "longitude_deg": 111.51940484169708,
      "height_km": 467.35026006970287,
      "semi_major_axis_km": 6843.608783170977,
      "eccentricity": 0.0002022,
      "inclination_deg": 97.2817,
      "raan_deg": 163.6382,
      "arg_perigee_deg": 333.1562,
      "mean_anomaly_deg": 26.9576,
      "mean_motion_rev_day": 15.33468995
    },
    {
      "epoch": "2026-04-20T09:59:23.282880Z",
      "apogee_km": 466.08207279706585,
      "perigee_km": 465.05209533241305,
      "latitude_deg": 4.91220066569826e-05,
      "longitude_deg": 166.12103607054428,
      "height_km": 468.53568175764013,
      "semi_major_axis_km": 6843.704084064739,
      "eccentricity": 7.525e-05,
      "inclination_deg": 97.2829,
      "raan_deg": 164.4749,
      "arg_perigee_deg": 73.9595,
      "mean_anomaly_deg": 286.1731,
      "mean_motion_rev_day": 15.33436964
    },
    {
      "epoch": "2026-04-21T15:44:45.636000Z",
      "apogee_km": 465.8706905934787,
      "perigee_km": 465.1124165497431,
      "latitude_deg": -2.6725129491753856e-05,
      "longitude_deg": 79.77916061459081,
      "height_km": 468.826210092489,
      "semi_major_axis_km": 6843.628553571611,
      "eccentricity": 5.54e-05,
      "inclination_deg": 97.2864,
      "raan_deg": 165.6982,
      "arg_perigee_deg": 234.1641,
      "mean_anomaly_deg": 125.955,
      "mean_motion_rev_day": 15.3346235
    },
    {
      "epoch": "2026-04-22T02:42:32.557248Z",
      "apogee_km": 466.5193691029008,
      "perigee_km": 464.5722044764034,
      "latitude_deg": 5.4009513778568013e-05,
      "longitude_deg": -84.66549182014896,
      "height_km": 468.877485199554,
      "semi_major_axis_km": 6843.682786789652,
      "eccentricity": 0.00014226,
      "inclination_deg": 97.2858,
      "raan_deg": 166.1493,
      "arg_perigee_deg": 103.1729,
      "mean_anomaly_deg": 256.9673,
      "mean_motion_rev_day": 15.33444122
    },
    {
      "epoch": "2026-04-23T02:12:03.503808Z",
      "apogee_km": 466.46036481717056,
      "perigee_km": 464.5368925873672,
      "latitude_deg": 3.688855525591743e-05,
      "longitude_deg": -77.04651522595437,
      "height_km": 468.9759080144982,
      "semi_major_axis_km": 6843.635628702269,
      "eccentricity": 0.00014053,
      "inclination_deg": 97.2817,
      "raan_deg": 167.112,
      "arg_perigee_deg": 112.4416,
      "mean_anomaly_deg": 247.6976,
      "mean_motion_rev_day": 15.33459972
    },
    {
      "epoch": "2026-04-24T17:21:14.842944Z",
      "apogee_km": 466.24437504643265,
      "perigee_km": 464.84689505235474,
      "latitude_deg": 4.063763177658131e-05,
      "longitude_deg": 55.659572905967806,
      "height_km": 468.6829298825377,
      "semi_major_axis_km": 6843.682635049393,
      "eccentricity": 0.0001021,
      "inclination_deg": 97.2841,
      "raan_deg": 168.7233,
      "arg_perigee_deg": 92.2029,
      "mean_anomaly_deg": 267.9331,
      "mean_motion_rev_day": 15.33444173
    },
    {
      "epoch": "2026-04-25T18:24:43.847424Z",
      "apogee_km": 465.9991542116841,
      "perigee_km": 465.0314617753338,
      "latitude_deg": 2.2328995668633377e-05,
      "longitude_deg": 39.789525114051074,
      "height_km": 468.46097068744666,
      "semi_major_axis_km": 6843.652307993509,
      "eccentricity": 7.07e-05,
      "inclination_deg": 97.2837,
      "raan_deg": 169.7532,
      "arg_perigee_deg": 70.0199,
      "mean_anomaly_deg": 290.112,
      "mean_motion_rev_day": 15.33454366
    },
    {
      "epoch": "2026-04-26T16:20:16.785312Z",
      "apogee_km": 466.13981817946296,
      "perigee_km": 464.9117913257778,
      "latitude_deg": 7.391835035872594e-05,
      "longitude_deg": 70.90151645064161,
      "height_km": 468.59645003054317,
      "semi_major_axis_km": 6843.66280475262,
      "eccentricity": 8.972e-05,
      "inclination_deg": 97.2843,
      "raan_deg": 170.6529,
      "arg_perigee_deg": 86.267,
      "mean_anomaly_deg": 273.8676,
      "mean_motion_rev_day": 15.33450838
    },
    {
      "epoch": "2026-04-27T17:23:45.437280Z",
      "apogee_km": 466.28614573202685,
      "perigee_km": 464.6505240569859,
      "latitude_deg": 2.173130079964121e-05,
      "longitude_deg": 55.03214685339765,
      "height_km": 468.67037620469944,
      "semi_major_axis_km": 6843.605334894506,
      "eccentricity": 0.0001195,
      "inclination_deg": 97.2847,
      "raan_deg": 171.682,
      "arg_perigee_deg": 96.4481,
      "mean_anomaly_deg": 263.6898,
      "mean_motion_rev_day": 15.33470154
    },
    {
      "epoch": "2026-04-28T16:53:16.533312Z",
      "apogee_km": 466.7290861292022,
      "perigee_km": 464.53086817614076,
      "latitude_deg": 3.444893070568663e-05,
      "longitude_deg": 62.651598189158406,
      "height_km": 469.0422645780152,
      "semi_major_axis_km": 6843.766977152671,
      "eccentricity": 0.0001606,
      "inclination_deg": 97.2854,
      "raan_deg": 172.6458,
      "arg_perigee_deg": 105.9879,
      "mean_anomaly_deg": 254.1541,
      "mean_motion_rev_day": 15.33415826
    },
    {
      "epoch": "2026-04-29T16:22:47.904096Z",
      "apogee_km": 466.32017932342114,
      "perigee_km": 464.7748753571477,
      "latitude_deg": -1.68964070225922e-05,
      "longitude_deg": 70.2719093944727,
      "height_km": 468.7488903519479,
      "semi_major_axis_km": 6843.684527340284,
      "eccentricity": 0.0001129,
      "inclination_deg": 97.2845,
      "raan_deg": 173.6116,
      "arg_perigee_deg": 96.7698,
      "mean_anomaly_deg": 263.3673,
      "mean_motion_rev_day": 15.33443537
    },
    {
      "epoch": "2026-04-30T14:18:20.452320Z",
      "apogee_km": 465.746927802702,
      "perigee_km": 465.2461107017634,
      "latitude_deg": -1.2713024637916282e-05,
      "longitude_deg": 101.38423423938616,
      "height_km": 468.73236246535413,
      "semi_major_axis_km": 6843.633519252233,
      "eccentricity": 3.659e-05,
      "inclination_deg": 97.2826,
      "raan_deg": 174.51,
      "arg_perigee_deg": 119.7368,
      "mean_anomaly_deg": 240.3911,
      "mean_motion_rev_day": 15.33460681
    },
    {
      "epoch": "2026-05-02T10:09:26.407584Z",
      "apogee_km": 466.1871856554226,
      "perigee_km": 464.90331086564856,
      "latitude_deg": -7.043885220522907e-05,
      "longitude_deg": 163.61160205252224,
      "height_km": 468.8184694589684,
      "semi_major_axis_km": 6843.682248260536,
      "eccentricity": 9.38e-05,
      "inclination_deg": 97.2831,
      "raan_deg": 176.3131,
      "arg_perigee_deg": 104.666,
      "mean_anomaly_deg": 255.4686,
      "mean_motion_rev_day": 15.33444303
    }
  ]
}